NORAD_CAT_ID,OBJECT_NAME,OBJECT_TYPE,EPOCH,MEAN_MOTION,ECCENTRICITY,INCLINATION,RA_OF_ASC_NODE,ARG_OF_PERICENTER,MEAN_ANOMALY,BSTAR,MEAN_MOTION_DOT,MEAN_MOTION_DDOT,TLE_LINE0,TLE_LINE1,TLE_LINE2,SEMIMAJOR_AXIS,PERIOD,APOGEE,PERIGEE,DECAYED
52850.0,STARLINK-4187,PAYLOAD,2022-10-21 22:00:00,15.0884964,0.0001587,53.2166,177.2245,58.2575,197.9114,-0.0010356,-0.00016736,0.0,0 STARLINK-4187,1 52850U 22062W   22294.91667824 -.00016736  00000-0 -10356-2 0  9996,2 52850  53.2166 177.2245 0001587  58.2575 197.9114 15.08849640  1307,6917.851,95.437,540.814,538.618,0.0
52850.0,STARLINK-4187,PAYLOAD,2022-10-22 08:00:01,15.08848556,0.0001504,53.2167,175.3535,55.2134,305.4534,-0.0023639,-0.00037722,0.0,0 STARLINK-4187,1 52850U 22062W   22295.33334491 -.00037722  00000-0 -23639-2 0  9990,2 52850  53.2167 175.3535 0001504  55.2134 305.4534 15.08848556 19931,6917.854,95.437,540.76,538.679,0.0
52850.0,STARLINK-4187,PAYLOAD,2022-10-22 14:00:01,15.08812326,0.0001452,53.2167,174.2302,60.5686,218.7988,0.0031937,0.00050868,0.0,0 STARLINK-4187,1 52850U 22062W   22295.58334491  .00050868  00000-0  31937-2 0  9991,2 52850  53.2167 174.2302 0001452  60.5686 218.7988 15.08812326  1301,6917.965,95.439,540.8340000000002,538.825,0.0
52850.0,STARLINK-4187,PAYLOAD,2022-10-22 22:00:00,15.08852645,0.0001616,53.2168,172.7355,55.9692,234.9883,-8.1215e-07,-3.01e-06,0.0,0 STARLINK-4187,1 52850U 22062W   22295.91667824 -.00000301  00000-0 -81215-6 0  9994,2 52850  53.2168 172.7355 0001616  55.9692 234.9883 15.08852645  1302,6917.842,95.437,540.825,538.589,0.0
52850.0,STARLINK-4187,PAYLOAD,2022-10-23 00:00:02,15.08847222,0.0001669,53.2169,172.3617,54.9774,328.9465,0.0010007,0.00015677,0.0,0 STARLINK-4187,1 52850U 22062W   22296.00002315  .00015677  00000-0  10007-2 0  9990,2 52850  53.2169 172.3617 0001669  54.9774 328.9465 15.08847222 20034,6917.858,95.437,540.878,538.569,0.0
52850.0,STARLINK-4187,PAYLOAD,2022-10-23 14:00:01,15.08826443,0.0001634,53.217,169.7411,62.8643,251.3319,0.0032929,0.0005249,0.0,0 STARLINK-4187,1 52850U 22062W   22296.58334491  .00052490  00000-0  32929-2 0  9997,2 52850  53.2170 169.7411 0001634  62.8643 251.3319 15.08826443  1301,6917.922,95.438,540.9169999999998,538.656,0.0
52850.0,STARLINK-4187,PAYLOAD,2022-10-23 22:00:00,15.08872386,0.0001708,53.2169,168.2464,56.3882,269.4083,-0.0047095,-0.00074531,0.0,0 STARLINK-4187,1 52850U 22062W   22296.91667824 -.00074531  00000-0 -47095-2 0  9995,2 52850  53.2169 168.2464 0001708  56.3882 269.4083 15.08872386 20177,6917.781,95.436,540.828,538.465,0.0
52850.0,STARLINK-4187,PAYLOAD,2022-10-24 14:00:01,15.08760484,0.0001619,53.2171,165.2521,62.3326,286.6368,0.0041379,0.0006604,0.0,0 STARLINK-4187,1 52850U 22062W   22297.58334491  .00066040  00000-0  41379-2 0  9993,2 52850  53.2171 165.2521 0001619  62.3326 286.6368 15.08760484  1308,6918.123000000001,95.443,541.1080000000002,538.868,0.0
52850.0,STARLINK-4187,PAYLOAD,2022-10-24 16:00:00,15.08776868,0.0001617,53.2172,164.8783,62.4977,19.3467,0.003442,0.00054823,0.0,0 STARLINK-4187,1 52850U 22062W   22297.66667824  .00054823  00000-0  34420-2 0  9996,2 52850  53.2172 164.8783 0001617  62.4977  19.3467 15.08776868 20287,6918.073,95.442,541.057,538.82,0.0
52850.0,STARLINK-4187,PAYLOAD,2022-10-24 22:00:00,15.0881175,0.0001712,53.2169,163.7575,55.1699,305.3244,0.00081634,0.00012718,0.0,0 STARLINK-4187,1 52850U 22062W   22297.91667824  .00012718  00000-0  81634-3 0  9991,2 52850  53.2169 163.7575 0001712  55.1699 305.3244 15.08811750  1310,6917.967,95.439,541.016,538.6469999999998,0.0
52850.0,STARLINK-4187,PAYLOAD,2022-10-25 06:00:00,15.08841051,0.000165,53.2167,162.2607,53.9812,318.0725,-0.0018767,-0.00030033,0.0,0 STARLINK-4187,1 52850U 22062W   22298.25001157 -.00030033  00000-0 -18767-2 0  9998,2 52850  53.2167 162.2607 0001650  53.9812 318.0725 15.08841051 20371,6917.877,95.437,540.884,538.601,0.0
52850.0,STARLINK-4187,PAYLOAD,2022-10-25 14:00:01,15.0881676,0.0001558,53.2168,160.7632,62.2025,321.4381,0.0024388,0.00038714,0.0,0 STARLINK-4187,1 52850U 22062W   22298.58334491  .00038714  00000-0  24388-2 0  9992,2 52850  53.2168 160.7632 0001558  62.2025 321.4381 15.08816760  1306,6917.951,95.439,540.894,538.739,0.0
52850.0,STARLINK-4187,PAYLOAD,2022-10-25 22:00:01,15.08838931,0.0001710999999999,53.2166,159.2685,55.9789,339.3103,-0.00039705,-6.601e-05,0.0,0 STARLINK-4187,1 52850U 22062W   22298.91668981 -.00006601  00000-0 -39705-3 0  9995,2 52850  53.2166 159.2685 0001711  55.9789 339.3103 15.08838931 20475,6917.884,95.438,540.932,538.565,0.0
52850.0,STARLINK-4187,PAYLOAD,2022-10-26 14:00:01,15.08838361,0.0001568,53.2164,156.2741,64.1615,354.2580000000001,0.0020819,0.00033,0.0,0 STARLINK-4187,1 52850U 22062W   22299.58334491  .00033000  00000-0  20819-2 0  9991,2 52850  53.2164 156.2741 0001568  64.1615 354.2580 15.08838361  1306,6917.885,95.438,540.835,538.6659999999998,0.0
52850.0,STARLINK-4187,PAYLOAD,2022-10-26 22:00:00,15.088506,0.0001699999999999,53.2161,154.7794,57.5649,12.4594,-0.0002652,-4.508e-05,0.0,0 STARLINK-4187,1 52850U 22062W   22299.91667824 -.00004508  00000-0 -26520-3 0  9996,2 52850  53.2161 154.7794 0001700  57.5649  12.4594 15.08850600 20629,6917.848000000001,95.437,540.889,538.5369999999998,0.0
52850.0,STARLINK-4187,PAYLOAD,2022-10-27 14:00:01,15.08830351,0.0001488,53.2158,151.7847,64.1795,29.127,0.0015294,0.0002413,0.0,0 STARLINK-4187,1 52850U 22062W   22300.58335648  .00024130  00000-0  15294-2 0  9994,2 52850  53.2158 151.7847 0001488  64.1795  29.1270 15.08830351  1301,6917.91,95.438,540.804,538.745,0.0
52850.0,STARLINK-4187,PAYLOAD,2022-10-27 22:00:00,15.08836459,0.0001626999999999,53.2156,150.2902,57.1403,47.6994,0.00026945,4.002e-05,0.0,0 STARLINK-4187,1 52850U 22062W   22300.91667824  .00004002  00000-0  26945-3 0  9997,2 52850  53.2156 150.2902 0001627  57.1403  47.6994 15.08836459  1301,6917.891,95.438,540.882,538.631,0.0
52850.0,STARLINK-4187,PAYLOAD,2022-10-28 02:00:01,15.08834317,0.0001612,53.2152,149.5419,54.5135,236.1903,0.0020655,0.00032732,0.0,0 STARLINK-4187,1 52850U 22062W   22301.08335648  .00032732  00000-0  20655-2 0  9994,2 52850  53.2152 149.5419 0001612  54.5135 236.1903 15.08834317 20800,6917.898,95.438,540.878,538.648,0.0
52850.0,STARLINK-4187,PAYLOAD,2022-10-28 14:00:01,15.08844792,0.0001619,53.2155,147.2955,66.5343,61.5747,-0.00069914,-0.00011399,0.0,0 STARLINK-4187,1 52850U 22062W   22301.58335648 -.00011399  00000-0 -69914-3 0  9999,2 52850  53.2155 147.2955 0001619  66.5343  61.5747 15.08844792  1302,6917.866,95.437,540.851,538.611,0.0
52850.0,STARLINK-4187,PAYLOAD,2022-10-28 22:00:01,15.08824631,0.0001766,53.2154,145.8009,59.2685,80.4398,0.0010035,0.00015712,0.0,0 STARLINK-4187,1 52850U 22062W   22301.91668981  .00015712  00000-0  10035-2 0  9995,2 52850  53.2154 145.8009 0001766  59.2685  80.4398 15.08824631  1308,6917.927,95.439,541.014,538.571,0.0
52850.0,STARLINK-4187,PAYLOAD,2022-10-29 12:00:00,15.08811029,0.0001569,53.2154,143.1802,64.4611,5.4781,0.0024192,0.00038393,0.0,0 STARLINK-4187,1 52850U 22062W   22302.50001157  .00038393  00000-0  24192-2 0  9996,2 52850  53.2154 143.1802 0001569  64.4611   5.4781 15.08811029  1308,6917.969,95.439,540.919,538.749,0.0
52850.0,STARLINK-4187,PAYLOAD,2022-10-29 22:00:01,15.08844591,0.0001730999999999,53.2165,141.3127,60.0951,114.3787,-0.0022933,-0.00036606,0.0,0 STARLINK-4187,1 52850U 22062W   22302.91668981 -.00036606  00000-0 -22933-2 0  9993,2 52850  53.2165 141.3127 0001731  60.0951 114.3787 15.08844591  1306,6917.866,95.437,540.929,538.534,0.0
52850.0,STARLINK-4187,PAYLOAD,2022-10-30 00:00:00,15.08832565,0.0001686,53.2165,140.9389,59.6252,207.6863,-0.0013369,-0.00021498,0.0,0 STARLINK-4187,1 52850U 22062W   22303.00001157 -.00021498  00000-0 -13369-2 0  9996,2 52850  53.2165 140.9389 0001686  59.6252 207.6863 15.08832565 21095,6917.903,95.438,540.934,538.602,0.0
52850.0,STARLINK-4187,PAYLOAD,2022-10-30 14:00:01,15.08852374,0.0001746,53.2163,138.3173,65.0802,132.5114,-0.0019472,-0.00031155,0.0,0 STARLINK-4187,1 52850U 22062W   22303.58334491 -.00031155  00000-0 -19472-2 0  9991,2 52850  53.2163 138.3173 0001746  65.0802 132.5114 15.08852374  1301,6917.843000000003,95.437,540.915,538.5,0.0
52850.0,STARLINK-4187,PAYLOAD,2022-10-30 22:00:01,15.08812719,0.0001921,53.2164,136.8226,58.096,151.1598,0.0021323,0.00033786,0.0,0 STARLINK-4187,1 52850U 22062W   22303.91668981  .00033786  00000-0  21323-2 0  9990,2 52850  53.2164 136.8226 0001921  58.0960 151.1598 15.08812719  1308,6917.964,95.439,541.158,538.5,0.0
52850.0,STARLINK-4187,PAYLOAD,2022-10-31 14:00:01,15.08847078,0.0001844999999999,53.217,133.8285,65.5416,166.8084,0.00011795,1.59e-05,0.0,0 STARLINK-4187,1 52850U 22062W   22304.58334491  .00001590  00000-0  11795-3 0  9991,2 52850  53.2170 133.8285 0001845  65.5416 166.8084 15.08847078  1300,6917.859,95.437,541.0,538.447,0.0
52850.0,STARLINK-4187,PAYLOAD,2022-10-31 22:00:01,15.08836756,0.0001949,53.2171,132.3337,57.9574,186.0629,0.00090313,0.00014113,0.0,0 STARLINK-4187,1 52850U 22062W   22304.91668981  .00014113  00000-0  90313-3 0  9990,2 52850  53.2171 132.3337 0001949  57.9574 186.0629 15.08836756  1308,6917.89,95.438,541.104,538.4069999999998,0.0
52850.0,STARLINK-4187,PAYLOAD,2022-11-01 00:00:02,15.08844346,0.0001889,53.2169,131.9596,56.3336,280.5846,-0.00021582,-3.722e-05,0.0,0 STARLINK-4187,1 52850U 22062W   22305.00002315 -.00003722  00000-0 -21582-3 0  9992,2 52850  53.2169 131.9596 0001889  56.3336 280.5846 15.08844346 21395,6917.8669999999975,95.437,541.039,538.425,0.0
52850.0,STARLINK-4187,PAYLOAD,2022-11-01 14:00:01,15.08837393,0.0001737,53.2174,129.3395,63.8415,203.2936,-0.00015176,-2.702e-05,0.0,0 STARLINK-4187,1 52850U 22062W   22305.58334491 -.00002702  00000-0 -15176-3 0  9997,2 52850  53.2174 129.3395 0001737  63.8415 203.2936 15.08837393  1307,6917.888000000001,95.438,540.955,538.552,0.0
